COSMOS 2600             
1 67674U 26023A   26064.60543865  .00080477  00000+0  37078-3 0  9991
2 67674  96.6429 140.3783 0002200 353.4176   6.7066 15.83358354  4405
2026-023B               
1 67675U 26023B   26063.39805439  .00017809  00000+0  75835-3 0  9997
2 67675  96.6368 136.9588 0019232 149.8660 210.3690 15.22849981  4051
2026-023C               
1 67676U 26023C   26064.44800086  .00015585  00000+0  66102-3 0  9994
2 67676  96.6398 137.9108 0020390 136.8025 223.4817 15.22987192  4370
2026-023D               
1 67677U 26023D   26064.64774124  .00013001  00000+0  55496-3 0  9995
2 67677  96.6429 138.0742 0020580 140.9303 219.3427 15.22804184  4233
2026-023E               
1 67678U 26023E   26064.64556399  .00014835  00000+0  62957-3 0  9994
2 67678  96.6322 138.0535 0020349 140.4349 219.8380 15.22979326  4238
2026-023F               
1 67679U 26023F   26064.70864385  .00014977  00000+0  63201-3 0  9999
2 67679  96.6330 140.6121 0022173 135.1720 225.1315 15.23133133  4236
2026-023G               
1 67680U 26023G   26064.64367902  .00015309  00000+0  64609-3 0  9990
2 67680  96.6257 140.5351 0023672 131.9538 228.3724 15.23091833  4224
2026-023H               
1 67681U 26023H   26064.64384572  .00013463  00000+0  56980-3 0  9995
2 67681  96.6402 140.5681 0023775 131.3107 229.0183 15.23018423  4224
2026-023J               
1 67682U 26023J   26064.64262072  .00014359  00000+0  60557-3 0  9996
2 67682  96.6357 140.5719 0023871 128.1639 232.1756 15.23123521  4224
ISS OBJECT XZ           
1 67683U 98067XZ  26063.31738248  .00052289  00000+0  87421-3 0  9993
2 67683  51.6304  98.5346 0009491 167.7937 192.3284 15.51337660  3952
GXIBA-1                 
1 67684U 98067YA  26064.45583860  .00080338  00000+0  12309-2 0  9996
2 67684  51.6299  92.6362 0010970 161.6042 198.5348 15.53561731  4133
CORAL                   
1 67685U 98067YB  26064.34454097  .00046853  00000+0  77286-3 0  9994
2 67685  51.6309  93.3938 0011325 167.4976 192.6297 15.51741434  4112
ISS OBJECT YC           
1 67686U 98067YC  26064.08285944  .00055661  00000+0  90337-3 0  9998
2 67686  51.6311  94.6478 0007743 134.4449 225.7176 15.52157473  4071
LEOPARD                 
1 67687U 98067YD  26064.47497779  .00046527  00000+0  77252-3 0  9995
2 67687  51.6307  92.7649 0007782 140.1506 220.0056 15.51598294  4059
ISS OBJECT YE           
1 67688U 98067YE  26063.50513603  .00064836  00000+0  10599-2 0  9997
2 67688  51.6315  97.5383 0007786 134.7310 225.4314 15.51890022  3906
